[
    {
        "CCSDS_OMM_VERS": "3.0",
        "COMMENT": "GENERATED VIA SPACE-TRACK.ORG API",
        "CREATION_DATE": "2025-03-02T18:08:23",
        "ORIGINATOR": "18 SPCS",
        "OBJECT_NAME": "BEIDOU 3M5",
        "OBJECT_ID": "2018-018A",
        "CENTER_NAME": "EARTH",
        "REF_FRAME": "TEME",
        "TIME_SYSTEM": "UTC",
        "MEAN_ELEMENT_THEORY": "SGP4",
        "EPOCH": "2025-03-02T05:14:09.837024",
        "MEAN_MOTION": "1.86230958",
        "ECCENTRICITY": "0.00065580",
        "INCLINATION": "56.2367",
        "RA_OF_ASC_NODE": "78.7604",
        "ARG_OF_PERICENTER": "341.7303",
        "MEAN_ANOMALY": "18.2979",
        "EPHEMERIS_TYPE": "0",
        "CLASSIFICATION_TYPE": "U",
        "NORAD_CAT_ID": "43207",
        "ELEMENT_SET_NO": "999",
        "REV_AT_EPOCH": "4795",
        "BSTAR": "0.00000000000000",
        "MEAN_MOTION_DOT": "0.00000011",
        "MEAN_MOTION_DDOT": "0.0000000000000",
        "SEMIMAJOR_AXIS": "27906.193",
        "PERIOD": "773.233",
        "APOAPSIS": "21546.359",
        "PERIAPSIS": "21509.757",
        "OBJECT_TYPE": "PAYLOAD",
        "RCS_SIZE": "LARGE",
        "COUNTRY_CODE": "PRC",
        "LAUNCH_DATE": "2018-02-12",
        "SITE": "XSC",
        "DECAY_DATE": null,
        "FILE": "4657142",
        "GP_ID": "282087051",
        "TLE_LINE0": "0 BEIDOU 3M5",
        "TLE_LINE1": "1 43207U 18018A   25061.21816941  .00000011  00000-0  00000-0 0  9992",
        "TLE_LINE2": "2 43207  56.2367  78.7604 0006558 341.7303  18.2979  1.86230958 47957"
    }
]